NORAD_CAT_ID,OBJECT_NAME,OBJECT_TYPE,EPOCH,MEAN_MOTION,ECCENTRICITY,INCLINATION,RA_OF_ASC_NODE,ARG_OF_PERICENTER,MEAN_ANOMALY,BSTAR,MEAN_MOTION_DOT,MEAN_MOTION_DDOT,TLE_LINE0,TLE_LINE1,TLE_LINE2,SEMIMAJOR_AXIS,PERIOD,APOGEE,PERIGEE,DECAYED
52133.0,STARLINK-3707,PAYLOAD,2022-07-14 22:00:00,15.08843738,0.0001369,53.2152,296.6454,52.9738,267.8083,-0.0016957,-0.00027176,0.0,0 STARLINK-3707,1 52133U 22029AX  22195.91667824 -.00027176  00000-0 -16957-2 0  9996,2 52133  53.2152 296.6454 0001369  52.9738 267.8083 15.08843738  1308,6917.869000000002,95.437,540.681,538.7869999999998,0.0
52133.0,STARLINK-3707,PAYLOAD,2022-07-15 06:00:00,15.08822594,0.0001291999999999,53.2159,295.148,62.0105,270.358,0.0023359,0.00037066,0.0,0 STARLINK-3707,1 52133U 22029AX  22196.25001157  .00037066  00000-0  23359-2 0  9996,2 52133  53.2159 295.1480 0001292  62.0105 270.3580 15.08822594 19625,6917.934,95.439,540.692,538.905,0.0
52133.0,STARLINK-3707,PAYLOAD,2022-07-15 14:00:01,15.08845691,0.0001468,53.2162,293.6535,53.8346,290.1328,0.00015771,2.223e-05,0.0,0 STARLINK-3707,1 52133U 22029AX  22196.58334491  .00002223  00000-0  15771-3 0  9999,2 52133  53.2162 293.6535 0001468  53.8346 290.1328 15.08845691  1302,6917.863,95.437,540.744,538.712,0.0
52133.0,STARLINK-3707,PAYLOAD,2022-07-15 22:00:00,15.08860847,0.0001450999999999,53.2157,292.1563,55.0546,300.5066,-0.0042315,-0.00067044,0.0,0 STARLINK-3707,1 52133U 22029AX  22196.91667824 -.00067044  00000-0 -42315-2 0  9992,2 52133  53.2157 292.1563 0001451  55.0546 300.5066 15.08860847 19729,6917.816999999999,95.436,540.685,538.678,0.0
52133.0,STARLINK-3707,PAYLOAD,2022-07-16 06:00:00,15.08827091,0.000143,53.2157,290.6591,62.9921,304.1716,0.0023988,0.00038082,0.0,0 STARLINK-3707,1 52133U 22029AX  22197.25001157  .00038082  00000-0  23988-2 0  9994,2 52133  53.2157 290.6591 0001430  62.9921 304.1716 15.08827091 19786,6917.92,95.438,540.774,538.7959999999998,0.0
52133.0,STARLINK-3707,PAYLOAD,2022-07-16 14:00:01,15.08850508,0.0001561,53.2156,289.1645,54.074,324.6824,-0.0017949,-0.00028749,0.0,0 STARLINK-3707,1 52133U 22029AX  22197.58334491 -.00028749  00000-0 -17949-2 0  9991,2 52133  53.2156 289.1645 0001561  54.0740 324.6824 15.08850508  1309,6917.848000000001,95.437,540.793,538.633,0.0
52133.0,STARLINK-3707,PAYLOAD,2022-07-16 22:00:00,15.08850944,0.0001440999999999,53.2154,287.6670000000001,52.0434,338.3211,-0.001104,-0.0001781999999999,0.0,0 STARLINK-3707,1 52133U 22029AX  22197.91667824 -.00017820  00000-0 -11040-2 0  9991,2 52133  53.2154 287.6670 0001441  52.0434 338.3211 15.08850944 19881,6917.847,95.437,540.7090000000002,538.715,0.0
52133.0,STARLINK-3707,PAYLOAD,2022-07-17 14:00:01,15.08830683,0.0001526,53.2155,284.6751,49.0645,4.5004,-0.00034305,-5.742e-05,0.0,0 STARLINK-3707,1 52133U 22029AX  22198.58334491 -.00005742  00000-0 -34305-3 0  9996,2 52133  53.2155 284.6751 0001526  49.0645   4.5004 15.08830683  1301,6917.909000000002,95.438,540.83,538.7180000000002,0.0
52133.0,STARLINK-3707,PAYLOAD,2022-07-17 22:00:00,15.08840688,0.0001505,53.2162,283.1807,48.9169,16.2275,-0.0032793,-0.00052102,0.0,0 STARLINK-3707,1 52133U 22029AX  22198.91667824 -.00052102  00000-0 -32793-2 0  9992,2 52133  53.2162 283.1807 0001505  48.9169  16.2275 15.08840688  1307,6917.878000000002,95.438,540.784,538.702,0.0
52133.0,STARLINK-3707,PAYLOAD,2022-07-18 06:00:00,15.08818288,0.0001455,53.2156,281.6804,56.9134,19.7957,0.001428,0.00022498,0.0,0 STARLINK-3707,1 52133U 22029AX  22199.25001157  .00022498  00000-0  14280-2 0  9995,2 52133  53.2156 281.6804 0001455  56.9134  19.7957 15.08818288 20087,6917.946999999999,95.439,540.818,538.805,0.0
52133.0,STARLINK-3707,PAYLOAD,2022-07-18 14:00:01,15.08815754,0.0001628,53.2157,280.1857,49.7368,38.5504,0.0014908,0.00023502,0.0,0 STARLINK-3707,1 52133U 22029AX  22199.58334491  .00023502  00000-0  14908-2 0  9995,2 52133  53.2157 280.1857 0001628  49.7368  38.5504 15.08815754  1307,6917.955,95.439,540.946,538.693,0.0
52133.0,STARLINK-3707,PAYLOAD,2022-07-18 22:00:00,15.08846725,0.000153,53.2159,278.6884,50.867,48.9946,-0.00119,-0.0001918,0.0,0 STARLINK-3707,1 52133U 22029AX  22199.91667824 -.00019180  00000-0 -11900-2 0  9999,2 52133  53.2159 278.6884 0001530  50.8670  48.9946 15.08846725 20186,6917.86,95.437,540.783,538.6659999999998,0.0
52133.0,STARLINK-3707,PAYLOAD,2022-07-19 14:00:01,15.088541500000002,0.0001696,53.216,275.6962,49.4026,73.6687,-0.00063997,-0.00010463,0.0,0 STARLINK-3707,1 52133U 22029AX  22200.58334491 -.00010463  00000-0 -63997-3 0  9995,2 52133  53.2160 275.6962 0001696  49.4026  73.6687 15.08854150 20283,6917.837,95.437,540.875,538.529,0.0
52133.0,STARLINK-3707,PAYLOAD,2022-07-19 22:00:00,15.08861951,0.0001659,53.2166,274.2026,51.2513,83.42,-0.0045192,-0.00071541,0.0,0 STARLINK-3707,1 52133U 22029AX  22200.91667824 -.00071541  00000-0 -45192-2 0  9991,2 52133  53.2166 274.2026 0001659  51.2513  83.4200 15.08861951  1305,6917.813,95.436,540.826,538.531,0.0
52133.0,STARLINK-3707,PAYLOAD,2022-07-20 04:00:00,15.08846742,0.0001558,53.216,273.0754,57.9247,355.4771,0.0022811999999999,0.00036211,0.0,0 STARLINK-3707,1 52133U 22029AX  22201.16667824  .00036211  00000-0  22812-2 0  9996,2 52133  53.2160 273.0754 0001558  57.9247 355.4771 15.08846742 20373,6917.86,95.437,540.803,538.6469999999998,0.0
52133.0,STARLINK-3707,PAYLOAD,2022-07-20 14:00:01,15.08831781,0.0001686,53.2161,271.2067,48.9799,108.9488,0.00084827,0.00013235,0.0,0 STARLINK-3707,1 52133U 22029AX  22201.58334491  .00013235  00000-0  84827-3 0  9999,2 52133  53.2161 271.2067 0001686  48.9799 108.9488 15.08831781 20435,6917.906,95.438,540.937,538.604,0.0
52133.0,STARLINK-3707,PAYLOAD,2022-07-20 22:00:01,15.08838372,0.000153,53.2159,269.7088,53.0233,116.5548,-0.0032659,-0.00051888,0.0,0 STARLINK-3707,1 52133U 22029AX  22201.91668981 -.00051888  00000-0 -32659-2 0  9993,2 52133  53.2159 269.7088 0001530  53.0233 116.5548 15.08838372  1305,6917.885,95.438,540.809,538.692,0.0
52133.0,STARLINK-3707,PAYLOAD,2022-07-21 06:00:00,15.08829877,0.0001591,53.2164,268.2136,58.9273,122.1595,-3.9025e-05,-9.09e-06,0.0,0 STARLINK-3707,1 52133U 22029AX  22202.25001157 -.00000909  00000-0 -39025-4 0  9991,2 52133  53.2164 268.2136 0001591  58.9273 122.1595 15.08829877 20535,6917.911,95.438,540.877,538.6759999999998,0.0
52133.0,STARLINK-3707,PAYLOAD,2022-07-21 14:00:01,15.08801906,0.0001728,53.2159,266.7176,51.2961,141.4332,0.002512,0.00039875,0.0,0 STARLINK-3707,1 52133U 22029AX  22202.58335648  .00039875  00000-0  25120-2 0  9993,2 52133  53.2159 266.7176 0001728  51.2961 141.4332 15.08801906  1308,6917.996999999999,95.44,541.057,538.6659999999998,0.0
52133.0,STARLINK-3707,PAYLOAD,2022-07-21 22:00:00,15.08828686,0.0001573,53.2157,265.2197,55.8126,148.4228,-0.00028796,-4.867e-05,0.0,0 STARLINK-3707,1 52133U 22029AX  22202.91667824 -.00004867  00000-0 -28796-3 0  9992,2 52133  53.2157 265.2197 0001573  55.8126 148.4228 15.08828686  1309,6917.915,95.438,540.868,538.692,0.0
52133.0,STARLINK-3707,PAYLOAD,2022-07-22 06:00:00,15.08846809,0.0001591,53.2158,263.7236,59.5324,156.2801,-0.0005298999999999,-8.713e-05,0.0,0 STARLINK-3707,1 52133U 22029AX  22203.25001157 -.00008713  00000-0 -52990-3 0  9998,2 52133  53.2158 263.7236 0001591  59.5324 156.2801 15.08846809  1309,6917.86,95.437,540.825,538.624,0.0
52133.0,STARLINK-3707,PAYLOAD,2022-07-22 12:00:00,15.08833973,0.0001725,53.2155,262.6026,53.5646,80.9503,0.00060194,9.303e-05,0.0,0 STARLINK-3707,1 52133U 22029AX  22203.50001157  .00009303  00000-0  60194-3 0  9995,2 52133  53.2155 262.6026 0001725  53.5646  80.9503 15.08833973 20728,6917.899,95.438,540.957,538.57,0.0
52133.0,STARLINK-3707,PAYLOAD,2022-07-22 22:00:00,15.088465300000005,0.0001613,53.2153,260.7306,56.6714,182.3405,9.1489e-05,1.169e-05,0.0,0 STARLINK-3707,1 52133U 22029AX  22203.91667824  .00001169  00000-0  91489-4 0  9993,2 52133  53.2153 260.7306 0001613  56.6714 182.3405 15.08846530  1306,6917.86,95.437,540.841,538.61,0.0
52133.0,STARLINK-3707,PAYLOAD,2022-07-23 14:00:01,15.08804224,0.000186,53.2151,257.7395,53.9348,208.3397,0.0029344,0.00046677,0.0,0 STARLINK-3707,1 52133U 22029AX  22204.58335648  .00046677  00000-0  29344-2 0  9995,2 52133  53.2151 257.7395 0001860  53.9348 208.3397 15.08804224  1308,6917.99,95.44,541.141,538.568,0.0
52133.0,STARLINK-3707,PAYLOAD,2022-07-23 22:00:00,15.08827847,0.000173,53.2151,256.2415,58.3361,215.4584,0.00079779,0.00012427,0.0,0 STARLINK-3707,1 52133U 22029AX  22204.91667824  .00012427  00000-0  79779-3 0  9990,2 52133  53.2151 256.2415 0001730  58.3361 215.4584 15.08827847  1308,6917.918000000002,95.438,540.979,538.586,0.0
52133.0,STARLINK-3707,PAYLOAD,2022-07-24 06:00:00,15.08852313,0.0001788,53.215,254.7455,60.3025,225.0697,-0.0011518,-0.00018579,0.0,0 STARLINK-3707,1 52133U 22029AX  22205.25001157 -.00018579  00000-0 -11518-2 0  9991,2 52133  53.2150 254.7455 0001788  60.3025 225.0697 15.08852313 20980,6917.843000000003,95.437,540.945,538.471,0.0
52133.0,STARLINK-3707,PAYLOAD,2022-07-24 14:00:01,15.08827002,0.0001875,53.2149,253.2505,52.9021,244.0728,0.0014333,0.00022589,0.0,0 STARLINK-3707,1 52133U 22029AX  22205.58334491  .00022589  00000-0  14333-2 0  9999,2 52133  53.2149 253.2505 0001875  52.9021 244.0728 15.08827002  1306,6917.92,95.438,541.082,538.488,0.0
52133.0,STARLINK-3707,PAYLOAD,2022-07-24 22:00:00,15.08813708,0.0001706999999999,53.215,251.7523,56.2508,252.3233,0.00034787,5.249e-05,0.0,0 STARLINK-3707,1 52133U 22029AX  22205.91667824  .00005249  00000-0  34787-3 0  9995,2 52133  53.2150 251.7523 0001707  56.2508 252.3233 15.08813708  1303,6917.9609999999975,95.439,541.007,538.645,0.0
52133.0,STARLINK-3707,PAYLOAD,2022-07-25 14:00:01,15.08803339,0.0001882,53.2149,248.7614,50.535,281.1823,0.0027226999999999,0.00043267,0.0,0 STARLINK-3707,1 52133U 22029AX  22206.58334491  .00043267  00000-0  27227-2 0  9992,2 52133  53.2149 248.7614 0001882  50.5350 281.1823 15.08803339  1308,6917.9919999999975,95.44,541.159,538.555,0.0
